{"type": "FeatureCollection", "features": [ {"type": "Feature", "properties": {"norad_id": 31441, "name": "FENGYUN 1C DEB", "group": "fengyun-1c-debris", "lat": 79.67845640683268, "lon": 159.8516649919394, "alt_km": 694.5729267349934, "timestamp": "2025-12-25T09:48:52.572494+00:00", "meta": {"OBJECT_NAME": "FENGYUN 1C DEB", "OBJECT_ID": "1999-025BUD", "EPOCH": "2025-12-24T20:24:41.777856", "MEAN_MOTION": 14.76048225, "ECCENTRICITY": 0.01007481, "INCLINATION": 99.3118, "RA_OF_ASC_NODE": 223.4902, "ARG_OF_PERICENTER": 298.4244, "MEAN_ANOMALY": 60.6836, "EPHEMERIS_TYPE": 0, "CLASSIFICATION_TYPE": "U", "NORAD_CAT_ID": 31441, "ELEMENT_SET_NO": 999, "REV_AT_EPOCH": 64269, "BSTAR": 0.0057457348, "MEAN_MOTION_DOT": 0.00043215, "MEAN_MOTION_DDOT": 0}, "tle": {"line1": "1 31441U 99025BUD 25358.85048354  .00043215  00000+0  57457-2 0  9992", "line2": "2 31441  99.3118 223.4902 0100748 298.4244  60.6836 14.76048225642696"}}, "geometry": {"type": "Point", "coordinates": [159.8516649919394, 79.67845640683268]}}, {"type": "Feature", "properties": {"norad_id": 31442, "name": "FENGYUN 1C DEB", "group": "fengyun-1c-debris", "lat": -19.229272027486516, "lon": 88.21790819052666, "alt_km": 727.6945092160104, "timestamp": "2025-12-25T09:48:52.572504+00:00", "meta": {"OBJECT_NAME": "FENGYUN 1C DEB", "OBJECT_ID": "1999-025BUE", "EPOCH": "2025-12-24T12:08:00.229344", "MEAN_MOTION": 14.33951774, "ECCENTRICITY": 0.00785047, "INCLINATION": 98.5303, "RA_OF_ASC_NODE": 84.326, "ARG_OF_PERICENTER": 337.665, "MEAN_ANOMALY": 22.1123, "EPHEMERIS_TYPE": 0, "CLASSIFICATION_TYPE": "U", "NORAD_CAT_ID": 31442, "ELEMENT_SET_NO": 999, "REV_AT_EPOCH": 97529, "BSTAR": 0.00033349655, "MEAN_MOTION_DOT": 9.19e-06, "MEAN_MOTION_DDOT": 0}, "tle": {"line1": "1 31442U 99025BUE 25358.50555821  .00000919  00000+0  33350-3 0  9998", "line2": "2 31442  98.5303  84.3260 0078504 337.6650  22.1123 14.33951774975298"}}, "geometry": {"type": "Point", "coordinates": [88.21790819052666, -19.229272027486516]}}, {"type": "Feature", "properties": {"norad_id": 31443, "name": "FENGYUN 1C DEB", "group": "fengyun-1c-debris", "lat": 0.2206203588616726, "lon": 100.00211409836577, "alt_km": 663.0664134313683, "timestamp": "2025-12-25T09:48:52.572514+00:00", "meta": {"OBJECT_NAME": "FENGYUN 1C DEB", "OBJECT_ID": "1999-025BUF", "EPOCH": "2025-12-24T00:39:50.869440", "MEAN_MOTION": 14.48791909, "ECCENTRICITY": 0.0191259, "INCLINATION": 99.2107, "RA_OF_ASC_NODE": 98.5312, "ARG_OF_PERICENTER": 64.7041, "MEAN_ANOMALY": 297.383, "EPHEMERIS_TYPE": 0, "CLASSIFICATION_TYPE": "U", "NORAD_CAT_ID": 31443, "ELEMENT_SET_NO": 999, "REV_AT_EPOCH": 67105, "BSTAR": 0.0010378834, "MEAN_MOTION_DOT": 4.888e-05, "MEAN_MOTION_DDOT": 0}, "tle": {"line1": "1 31443U 99025BUF 25358.02767210  .00004888  00000+0  10379-2 0  9997", "line2": "2 31443  99.2107  98.5312 0191259  64.7041 297.3830 14.48791909671055"}}, "geometry": {"type": "Point", "coordinates": [100.00211409836577, 0.2206203588616726]}}, {"type": "Feature", "properties": {"norad_id": 31444, "name": "FENGYUN 1C DEB", "group": "fengyun-1c-debris", "lat": -40.93746177318838, "lon": 114.79484532307775, "alt_km": 710.8321509631087, "timestamp": "2025-12-25T09:48:52.572524+00:00", "meta": {"OBJECT_NAME": "FENGYUN 1C DEB", "OBJECT_ID": "1999-025BUG", "EPOCH": "2025-12-22T02:24:16.096320", "MEAN_MOTION": 14.70070692, "ECCENTRICITY": 0.00626396, "INCLINATION": 98.9296, "RA_OF_ASC_NODE": 299.0143, "ARG_OF_PERICENTER": 44.119, "MEAN_ANOMALY": 316.4986, "EPHEMERIS_TYPE": 0, "CLASSIFICATION_TYPE": "U", "NORAD_CAT_ID": 31444, "ELEMENT_SET_NO": 999, "REV_AT_EPOCH": 97626, "BSTAR": 0.0017329246, "MEAN_MOTION_DOT": 0.00010681, "MEAN_MOTION_DDOT": 0}, "tle": {"line1": "1 31444U 99025BUG 25356.10018630  .00010681  00000+0  17329-2 0  9990", "line2": "2 31444  98.9296 299.0143 0062639  44.1190 316.4986 14.70070692976267"}}, "geometry": {"type": "Point", "coordinates": [114.79484532307775, -40.93746177318838]}}, {"type": "Feature", "properties": {"norad_id": 31447, "name": "FENGYUN 1C DEB", "group": "fengyun-1c-debris", "lat": -32.97057352961954, "lon": 46.855049050348626, "alt_km": 653.544004358926, "timestamp": "2025-12-25T09:48:52.572533+00:00", "meta": {"OBJECT_NAME": "FENGYUN 1C DEB", "OBJECT_ID": "1999-025BUK", "EPOCH": "2025-12-14T21:01:38.356896", "MEAN_MOTION": 14.2403744, "ECCENTRICITY": 0.02304397, "INCLINATION": 98.9919, "RA_OF_ASC_NODE": 30.1793, "ARG_OF_PERICENTER": 349.1545, "MEAN_ANOMALY": 10.471, "EPHEMERIS_TYPE": 0, "CLASSIFICATION_TYPE": "U", "NORAD_CAT_ID": 31447, "ELEMENT_SET_NO": 999, "REV_AT_EPOCH": 64882, "BSTAR": 0.00018562598, "MEAN_MOTION_DOT": 5.08e-06, "MEAN_MOTION_DDOT": 0}, "tle": {"line1": "1 31447U 99025BUK 25348.87613839  .00000508  00000+0  18563-3 0  9999", "line2": "2 31447  98.9919  30.1793 0230439 349.1545  10.4710 14.24037440648821"}}, "geometry": {"type": "Point", "coordinates": [46.855049050348626, -32.97057352961954]}}, {"type": "Feature", "properties": {"norad_id": 31448, "name": "FENGYUN 1C DEB", "group": "fengyun-1c-debris", "lat": 26.337701030303144, "lon": -165.3961097175148, "alt_km": 756.4864571706821, "timestamp": "2025-12-25T09:48:52.572546+00:00", "meta": {"OBJECT_NAME": "FENGYUN 1C DEB", "OBJECT_ID": "1999-025BUL", "EPOCH": "2025-12-20T18:05:54.538080", "MEAN_MOTION": 14.27837488, "ECCENTRICITY": 0.00593925, "INCLINATION": 98.4998, "RA_OF_ASC_NODE": 5.8293, "ARG_OF_PERICENTER": 180.4564, "MEAN_ANOMALY": 179.6573, "EPHEMERIS_TYPE": 0, "CLASSIFICATION_TYPE": "U", "NORAD_CAT_ID": 31448, "ELEMENT_SET_NO": 999, "REV_AT_EPOCH": 64418, "BSTAR": 0.00043686395, "MEAN_MOTION_DOT": 1.058e-05, "MEAN_MOTION_DDOT": 0}, "tle": {"line1": "1 31448U 99025BUL 25354.75410345  .00001058  00000+0  43686-3 0  9996", "line2": "2 31448  98.4998   5.8293 0059392 180.4564 179.6573 14.27837488644185"}}, "geometry": {"type": "Point", "coordinates": [-165.3961097175148, 26.337701030303144]}}, {"type": "Feature", "properties": {"norad_id": 31449, "name": "FENGYUN 1C DEB", "group": "fengyun-1c-debris", "lat": 44.51684608169791, "lon": 49.27419394978779, "alt_km": 878.13692050387, "timestamp": "2025-12-25T09:48:52.572573+00:00", "meta": {"OBJECT_NAME": "FENGYUN 1C DEB", "OBJECT_ID": "1999-025BUM", "EPOCH": "2025-12-20T10:40:43.619520", "MEAN_MOTION": 14.33719628, "ECCENTRICITY": 0.01441603, "INCLINATION": 98.5539, "RA_OF_ASC_NODE": 52.876, "ARG_OF_PERICENTER": 245.7554, "MEAN_ANOMALY": 112.8511, "EPHEMERIS_TYPE": 0, "CLASSIFICATION_TYPE": "U", "NORAD_CAT_ID": 31449, "ELEMENT_SET_NO": 999, "REV_AT_EPOCH": 97747, "BSTAR": 0.00016710121, "MEAN_MOTION_DOT": 4.73e-06, "MEAN_MOTION_DDOT": 0}, "tle": {"line1": "1 31449U 99025BUM 25354.44494930  .00000473  00000+0  16710-3 0  9993", "line2": "2 31449  98.5539  52.8760 0144160 245.7554 112.8511 14.33719628977475"}}, "geometry": {"type": "Point", "coordinates": [49.27419394978779, 44.51684608169791]}}, {"type": "Feature", "properties": {"norad_id": 31451, "name": "FENGYUN 1C DEB", "group": "fengyun-1c-debris", "lat": -18.090078974670895, "lon": 44.1129669382483, "alt_km": 874.113140617822, "timestamp": "2025-12-25T09:48:52.572585+00:00", "meta": {"OBJECT_NAME": "FENGYUN 1C DEB", "OBJECT_ID": "1999-025BUP", "EPOCH": "2025-12-24T01:46:07.992768", "MEAN_MOTION": 14.13639411, "ECCENTRICITY": 0.00317113, "INCLINATION": 98.7622, "RA_OF_ASC_NODE": 39.9171, "ARG_OF_PERICENTER": 179.5002, "MEAN_ANOMALY": 210.8483, "EPHEMERIS_TYPE": 0, "CLASSIFICATION_TYPE": "U", "NORAD_CAT_ID": 31451, "ELEMENT_SET_NO": 999, "REV_AT_EPOCH": 96170, "BSTAR": 0.00034326728, "MEAN_MOTION_DOT": 6.08e-06, "MEAN_MOTION_DDOT": 0}, "tle": {"line1": "1 31451U 99025BUP 25358.07370362  .00000608  00000+0  34327-3 0  9995", "line2": "2 31451  98.7622  39.9171 0031711 179.5002 210.8483 14.13639411961709"}}, "geometry": {"type": "Point", "coordinates": [44.1129669382483, -18.090078974670895]}}, {"type": "Feature", "properties": {"norad_id": 31452, "name": "FENGYUN 1C DEB", "group": "fengyun-1c-debris", "lat": -50.283392763363494, "lon": -3.44920023911028, "alt_km": 872.2799172931036, "timestamp": "2025-12-25T09:48:52.572594+00:00", "meta": {"OBJECT_NAME": "FENGYUN 1C DEB", "OBJECT_ID": "1999-025BUQ", "EPOCH": "2025-12-23T05:27:15.172416", "MEAN_MOTION": 14.15182355, "ECCENTRICITY": 0.00410856, "INCLINATION": 98.6593, "RA_OF_ASC_NODE": 343.8624, "ARG_OF_PERICENTER": 98.5, "MEAN_ANOMALY": 262.0834, "EPHEMERIS_TYPE": 0, "CLASSIFICATION_TYPE": "U", "NORAD_CAT_ID": 31452, "ELEMENT_SET_NO": 999, "REV_AT_EPOCH": 96354, "BSTAR": 0.00033085609, "MEAN_MOTION_DOT": 6.06e-06, "MEAN_MOTION_DDOT": 0}, "tle": {"line1": "1 31452U 99025BUQ 25357.22725894  .00000606  00000+0  33086-3 0  9995", "line2": "2 31452  98.6593 343.8624 0041085  98.5000 262.0834 14.15182355963544"}}, "geometry": {"type": "Point", "coordinates": [-3.44920023911028, -50.283392763363494]}}, {"type": "Feature", "properties": {"norad_id": 31455, "name": "FENGYUN 1C DEB", "group": "fengyun-1c-debris", "lat": 58.94245759339635, "lon": -178.40614160142624, "alt_km": 885.5671048419354, "timestamp": "2025-12-25T09:48:52.572605+00:00", "meta": {"OBJECT_NAME": "FENGYUN 1C DEB", "OBJECT_ID": "1999-025BUT", "EPOCH": "2025-12-22T16:36:48.499200", "MEAN_MOTION": 14.1144215, "ECCENTRICITY": 0.02182431, "INCLINATION": 98.575, "RA_OF_ASC_NODE": 344.4862, "ARG_OF_PERICENTER": 22.9407, "MEAN_ANOMALY": 338.1335, "EPHEMERIS_TYPE": 0, "CLASSIFICATION_TYPE": "U", "NORAD_CAT_ID": 31455, "ELEMENT_SET_NO": 999, "REV_AT_EPOCH": 96244, "BSTAR": 0.00028245585, "MEAN_MOTION_DOT": 5.98e-06, "MEAN_MOTION_DDOT": 0}, "tle": {"line1": "1 31455U 99025BUT 25356.69222800  .00000598  00000+0  28246-3 0  9999", "line2": "2 31455  98.5750 344.4862 0218243  22.9407 338.1335 14.11442150962443"}}, "geometry": {"type": "Point", "coordinates": [-178.40614160142624, 58.94245759339635]}}]}